[{"OBJECT_NAME":"NETSAT-1","OBJECT_ID":"2020-068W","EPOCH":"2026-03-09T22:42:38.711232","MEAN_MOTION":15.32042482,"ECCENTRICITY":0.00057337,"INCLINATION":97.8751,"RA_OF_ASC_NODE":63.2583,"ARG_OF_PERICENTER":18.5877,"MEAN_ANOMALY":341.5572,"EPHEMERIS_TYPE":0,"CLASSIFICATION_TYPE":"U","NORAD_CAT_ID":46506,"ELEMENT_SET_NO":999,"REV_AT_EPOCH":30009,"BSTAR":0.00059222329,"MEAN_MOTION_DOT":0.00018269,"MEAN_MOTION_DDOT":0},{"OBJECT_NAME":"STARLINK-32177","OBJECT_ID":"2024-144S","EPOCH":"2026-03-09T15:09:29.280960","MEAN_MOTION":15.30187894,"ECCENTRICITY":0.0001197,"INCLINATION":53.1602,"RA_OF_ASC_NODE":217.1586,"ARG_OF_PERICENTER":60.2695,"MEAN_ANOMALY":299.8425,"EPHEMERIS_TYPE":0,"CLASSIFICATION_TYPE":"U","NORAD_CAT_ID":60441,"ELEMENT_SET_NO":999,"REV_AT_EPOCH":8930,"BSTAR":-2.4408e-5,"MEAN_MOTION_DOT":-1.082e-5,"MEAN_MOTION_DDOT":0}]
